{"type": "FeatureCollection", "features": [ {"type": "Feature", "properties": {"norad_id": 41335, "name": "SENTINEL-3A", "group": "resource", "lat": 14.107166996267205, "lon": -127.00206495673818, "alt_km": 803.3528783992988, "timestamp": "2025-12-11T18:59:45.723623+00:00", "meta": {"OBJECT_NAME": "SENTINEL-3A", "OBJECT_ID": "2016-011A", "EPOCH": "2025-12-11T06:26:26.287584", "MEAN_MOTION": 14.26745874, "ECCENTRICITY": 9.451e-05, "INCLINATION": 98.6209, "RA_OF_ASC_NODE": 50.2977, "ARG_OF_PERICENTER": 93.9284, "MEAN_ANOMALY": 266.2005, "EPHEMERIS_TYPE": 0, "CLASSIFICATION_TYPE": "U", "NORAD_CAT_ID": 41335, "ELEMENT_SET_NO": 999, "REV_AT_EPOCH": 51126, "BSTAR": 0.00012058151, "MEAN_MOTION_DOT": 2.48e-06, "MEAN_MOTION_DDOT": 0}, "tle": {"line1": "1 41335U 16011A   25345.26835981  .00000248  00000+0  12058-3 0  9998", "line2": "2 41335  98.6209  50.2977 0000945  93.9284 266.2005 14.26745874511269"}}, "geometry": {"type": "Point", "coordinates": [-127.00206495673818, 14.107166996267205]}}, {"type": "Feature", "properties": {"norad_id": 41556, "name": "ZIYUAN 3-2 (ZY 3-2)", "group": "resource", "lat": -45.14662796209536, "lon": 67.48432819333397, "alt_km": 503.99485448349697, "timestamp": "2025-12-11T18:59:45.723633+00:00", "meta": {"OBJECT_NAME": "ZIYUAN 3-2 (ZY 3-2)", "OBJECT_ID": "2016-033A", "EPOCH": "2025-12-11T06:34:08.355648", "MEAN_MOTION": 15.21486358, "ECCENTRICITY": 0.00124025, "INCLINATION": 97.4041, "RA_OF_ASC_NODE": 59.4645, "ARG_OF_PERICENTER": 254.6993, "MEAN_ANOMALY": 105.2872, "EPHEMERIS_TYPE": 0, "CLASSIFICATION_TYPE": "U", "NORAD_CAT_ID": 41556, "ELEMENT_SET_NO": 999, "REV_AT_EPOCH": 52941, "BSTAR": 0.0011600507, "MEAN_MOTION_DOT": 0.00026145, "MEAN_MOTION_DDOT": 0}, "tle": {"line1": "1 41556U 16033A   25345.27370782  .00026145  00000+0  11601-2 0  9997", "line2": "2 41556  97.4041  59.4645 0012402 254.6993 105.2872 15.21486358529417"}}, "geometry": {"type": "Point", "coordinates": [67.48432819333397, -45.14662796209536]}}, {"type": "Feature", "properties": {"norad_id": 41599, "name": "CARTOSAT-2C", "group": "resource", "lat": -81.36711174634283, "lon": 163.16869045890556, "alt_km": 522.5492212130303, "timestamp": "2025-12-11T18:59:45.723644+00:00", "meta": {"OBJECT_NAME": "CARTOSAT-2C", "OBJECT_ID": "2016-040A", "EPOCH": "2025-12-11T06:45:55.562976", "MEAN_MOTION": 15.19270401, "ECCENTRICITY": 0.00109179, "INCLINATION": 97.4765, "RA_OF_ASC_NODE": 42.5469, "ARG_OF_PERICENTER": 69.6413, "MEAN_ANOMALY": 290.5994, "EPHEMERIS_TYPE": 0, "CLASSIFICATION_TYPE": "U", "NORAD_CAT_ID": 41599, "ELEMENT_SET_NO": 999, "REV_AT_EPOCH": 52518, "BSTAR": 0.0003094142, "MEAN_MOTION_DOT": 6.467e-05, "MEAN_MOTION_DDOT": 0}, "tle": {"line1": "1 41599U 16040A   25345.28189309  .00006467  00000+0  30941-3 0  9990", "line2": "2 41599  97.4765  42.5469 0010917  69.6413 290.5994 15.19270401525184"}}, "geometry": {"type": "Point", "coordinates": [163.16869045890556, -81.36711174634283]}}, {"type": "Feature", "properties": {"norad_id": 41601, "name": "SKYSAT-C1", "group": "resource", "lat": -81.06194439315733, "lon": 74.0553055253262, "alt_km": 475.9259603216051, "timestamp": "2025-12-11T18:59:45.723655+00:00", "meta": {"OBJECT_NAME": "SKYSAT-C1", "OBJECT_ID": "2016-040C", "EPOCH": "2025-12-11T02:07:35.122080", "MEAN_MOTION": 15.32539274, "ECCENTRICITY": 0.00025659, "INCLINATION": 96.9828, "RA_OF_ASC_NODE": 22.195, "ARG_OF_PERICENTER": 20.1228, "MEAN_ANOMALY": 340.0116, "EPHEMERIS_TYPE": 0, "CLASSIFICATION_TYPE": "U", "NORAD_CAT_ID": 41601, "ELEMENT_SET_NO": 999, "REV_AT_EPOCH": 52902, "BSTAR": 0.00042234949, "MEAN_MOTION_DOT": 0.00013208, "MEAN_MOTION_DDOT": 0}, "tle": {"line1": "1 41601U 16040C   25345.08860095  .00013208  00000+0  42235-3 0  9990", "line2": "2 41601  96.9828  22.1950 0002565  20.1228 340.0116 15.32539274529022"}}, "geometry": {"type": "Point", "coordinates": [74.0553055253262, -81.06194439315733]}}, {"type": "Feature", "properties": {"norad_id": 41603, "name": "LAPAN-A3", "group": "resource", "lat": 62.09158795199123, "lon": -30.314338984553604, "alt_km": 464.65974395889225, "timestamp": "2025-12-11T18:59:45.723666+00:00", "meta": {"OBJECT_NAME": "LAPAN-A3", "OBJECT_ID": "2016-040E", "EPOCH": "2025-12-11T06:10:40.352736", "MEAN_MOTION": 15.31531173, "ECCENTRICITY": 0.00098324, "INCLINATION": 97.1433, "RA_OF_ASC_NODE": 342.8674, "ARG_OF_PERICENTER": 339.6328, "MEAN_ANOMALY": 20.452, "EPHEMERIS_TYPE": 0, "CLASSIFICATION_TYPE": "U", "NORAD_CAT_ID": 41603, "ELEMENT_SET_NO": 999, "REV_AT_EPOCH": 52603, "BSTAR": 0.0001953948, "MEAN_MOTION_DOT": 5.883e-05, "MEAN_MOTION_DDOT": 0}, "tle": {"line1": "1 41603U 16040E   25345.25741149  .00005883  00000+0  19539-3 0  9990", "line2": "2 41603  97.1433 342.8674 0009832 339.6328  20.4520 15.31531173526032"}}, "geometry": {"type": "Point", "coordinates": [-30.314338984553604, 62.09158795199123]}}, {"type": "Feature", "properties": {"norad_id": 41604, "name": "BIROS", "group": "resource", "lat": 47.618294424020554, "lon": 9.36832979859227, "alt_km": 300.8230441736805, "timestamp": "2025-12-11T18:59:45.723676+00:00", "meta": {"OBJECT_NAME": "BIROS", "OBJECT_ID": "2016-040F", "EPOCH": "2025-12-11T02:10:11.450784", "MEAN_MOTION": 15.88965505, "ECCENTRICITY": 0.00032243, "INCLINATION": 97.0705, "RA_OF_ASC_NODE": 16.4571, "ARG_OF_PERICENTER": 155.3544, "MEAN_ANOMALY": 204.7884, "EPHEMERIS_TYPE": 0, "CLASSIFICATION_TYPE": "U", "NORAD_CAT_ID": 41604, "ELEMENT_SET_NO": 999, "REV_AT_EPOCH": 52846, "BSTAR": 0.00075595049, "MEAN_MOTION_DOT": 0.0021286, "MEAN_MOTION_DDOT": 1.8142315e-05}, "tle": {"line1": "1 41604U 16040F   25345.09041031  .00212860  18142-4  75595-3 0  9996", "line2": "2 41604  97.0705  16.4571 0003224 155.3544 204.7884 15.88965505528467"}}, "geometry": {"type": "Point", "coordinates": [9.36832979859227, 47.618294424020554]}}, {"type": "Feature", "properties": {"norad_id": 41727, "name": "GAOFEN-3", "group": "resource", "lat": 34.87086583193718, "lon": 177.30499561637268, "alt_km": 748.7357084909527, "timestamp": "2025-12-11T18:59:45.723687+00:00", "meta": {"OBJECT_NAME": "GAOFEN-3", "OBJECT_ID": "2016-049A", "EPOCH": "2025-12-11T05:00:26.307648", "MEAN_MOTION": 14.42212849, "ECCENTRICITY": 0.00014606, "INCLINATION": 98.4041, "RA_OF_ASC_NODE": 350.8179, "ARG_OF_PERICENTER": 63.5064, "MEAN_ANOMALY": 296.6275, "EPHEMERIS_TYPE": 0, "CLASSIFICATION_TYPE": "U", "NORAD_CAT_ID": 41727, "ELEMENT_SET_NO": 999, "REV_AT_EPOCH": 49155, "BSTAR": 5.2362129e-05, "MEAN_MOTION_DOT": 1.29e-06, "MEAN_MOTION_DDOT": 0}, "tle": {"line1": "1 41727U 16049A   25345.20863782  .00000129  00000+0  52362-4 0  9999", "line2": "2 41727  98.4041 350.8179 0001460  63.5064 296.6275 14.42212849491555"}}, "geometry": {"type": "Point", "coordinates": [177.30499561637268, 34.87086583193718]}}, {"type": "Feature", "properties": {"norad_id": 41771, "name": "SKYSAT-C4", "group": "resource", "lat": 1.908285657875567, "lon": -168.74275479940408, "alt_km": 441.8670411187213, "timestamp": "2025-12-11T18:59:45.723698+00:00", "meta": {"OBJECT_NAME": "SKYSAT-C4", "OBJECT_ID": "2016-058B", "EPOCH": "2025-12-11T01:05:49.291296", "MEAN_MOTION": 15.42167765, "ECCENTRICITY": 0.00013479, "INCLINATION": 96.9378, "RA_OF_ASC_NODE": 10.3152, "ARG_OF_PERICENTER": 134.0132, "MEAN_ANOMALY": 226.1227, "EPHEMERIS_TYPE": 0, "CLASSIFICATION_TYPE": "U", "NORAD_CAT_ID": 41771, "ELEMENT_SET_NO": 999, "REV_AT_EPOCH": 51641, "BSTAR": 0.00048523198, "MEAN_MOTION_DOT": 0.00020747, "MEAN_MOTION_DDOT": 0}, "tle": {"line1": "1 41771U 16058B   25345.04570939  .00020747  00000+0  48523-3 0  9990", "line2": "2 41771  96.9378  10.3152 0001347 134.0132 226.1227 15.42167765516418"}}, "geometry": {"type": "Point", "coordinates": [-168.74275479940408, 1.908285657875567]}}, {"type": "Feature", "properties": {"norad_id": 41772, "name": "SKYSAT-C5", "group": "resource", "lat": 62.11822323868866, "lon": -136.8401101644643, "alt_km": 452.3147389372016, "timestamp": "2025-12-11T18:59:45.723708+00:00", "meta": {"OBJECT_NAME": "SKYSAT-C5", "OBJECT_ID": "2016-058C", "EPOCH": "2025-12-11T01:16:55.377408", "MEAN_MOTION": 15.35316112, "ECCENTRICITY": 0.00024634, "INCLINATION": 97.0761, "RA_OF_ASC_NODE": 28.8717, "ARG_OF_PERICENTER": 138.4277, "MEAN_ANOMALY": 221.7155, "EPHEMERIS_TYPE": 0, "CLASSIFICATION_TYPE": "U", "NORAD_CAT_ID": 41772, "ELEMENT_SET_NO": 999, "REV_AT_EPOCH": 51490, "BSTAR": 0.0004403824, "MEAN_MOTION_DOT": 0.00015041, "MEAN_MOTION_DDOT": 0}, "tle": {"line1": "1 41772U 16058C   25345.05341872  .00015041  00000+0  44038-3 0  9992", "line2": "2 41772  97.0761  28.8717 0002463 138.4277 221.7155 15.35316112514903"}}, "geometry": {"type": "Point", "coordinates": [-136.8401101644643, 62.11822323868866]}}, {"type": "Feature", "properties": {"norad_id": 41773, "name": "SKYSAT-C2", "group": "resource", "lat": 59.52094077554084, "lon": -157.52670671113896, "alt_km": 448.2184781865826, "timestamp": "2025-12-11T18:59:45.723719+00:00", "meta": {"OBJECT_NAME": "SKYSAT-C2", "OBJECT_ID": "2016-058D", "EPOCH": "2025-12-11T07:32:29.979168", "MEAN_MOTION": 15.37218472, "ECCENTRICITY": 0.00043894, "INCLINATION": 97.0367, "RA_OF_ASC_NODE": 9.9012, "ARG_OF_PERICENTER": 38.1435, "MEAN_ANOMALY": 322.012, "EPHEMERIS_TYPE": 0, "CLASSIFICATION_TYPE": "U", "NORAD_CAT_ID": 41773, "ELEMENT_SET_NO": 999, "REV_AT_EPOCH": 51614, "BSTAR": 0.00054339079, "MEAN_MOTION_DOT": 0.00019762, "MEAN_MOTION_DDOT": 0}, "tle": {"line1": "1 41773U 16058D   25345.31423587  .00019762  00000+0  54339-3 0  9995", "line2": "2 41773  97.0367   9.9012 0004389  38.1435 322.0120 15.37218472516142"}}, "geometry": {"type": "Point", "coordinates": [-157.52670671113896, 59.52094077554084]}}]}